NORAD_CAT_ID,OBJECT_NAME,OBJECT_TYPE,EPOCH,MEAN_MOTION,ECCENTRICITY,INCLINATION,RA_OF_ASC_NODE,ARG_OF_PERICENTER,MEAN_ANOMALY,BSTAR,MEAN_MOTION_DOT,MEAN_MOTION_DDOT,TLE_LINE0,TLE_LINE1,TLE_LINE2,SEMIMAJOR_AXIS,PERIOD,APOGEE,PERIGEE,DECAYED
54161.0,STARLINK-5269,PAYLOAD,2023-12-28 10:36:39,15.08847561,0.0001592,53.219,15.6528,102.433,257.6841,7.5552e-05,9.15e-06,0.0,0 STARLINK-5269,1 54161U 22141E   23362.44212483  .00000915  00000-0  75552-4 0  9994,2 54161  53.2190  15.6528 0001592 102.4330 257.6841 15.08847561 64600,6917.857,95.437,540.824,538.621,0.0
54161.0,STARLINK-5269,PAYLOAD,2023-12-29 04:05:54,15.08837139,0.0002247,53.2178,12.3835,128.459,231.6604,2.621e-05,1.29e-06,0.0,0 STARLINK-5269,1 54161U 22141E   23363.17077112  .00000129  00000-0  26210-4 0  9997,2 54161  53.2178  12.3835 0002247 128.4590 231.6604 15.08837139 64716,6917.889,95.438,541.309,538.2,0.0
54161.0,STARLINK-5269,PAYLOAD,2023-12-29 07:16:41,15.08836895,0.0001496,53.2175,11.7922,86.7172,273.3991,2.4648e-05,1.04e-06,0.0,0 STARLINK-5269,1 54161U 22141E   23363.30325473  .00000104  00000-0  24648-4 0  9994,2 54161  53.2175  11.7922 0001496  86.7172 273.3991 15.08836895 64732,6917.89,95.438,540.79,538.72,0.0
54161.0,STARLINK-5269,PAYLOAD,2023-12-30 07:07:27,15.08851835,0.0001613,53.2188,7.33,103.9106,256.2065,-7.9558e-06,-4.15e-06,0.0,0 STARLINK-5269,1 54161U 22141E   23364.29684528 -.00000415  00000-0 -79558-5 0  9990,2 54161  53.2188   7.3300 0001613 103.9106 256.2065 15.08851835 64886,6917.844,95.437,540.825,538.593,0.0
54161.0,STARLINK-5269,PAYLOAD,2023-12-31 03:47:29,15.08833502,0.0001679,53.2184,3.4643,104.2244,255.8935,7.3396e-06,-1.71e-06,0.0,0 STARLINK-5269,1 54161U 22141E   23365.15797652 -.00000171  00000-0  73396-5 0  9991,2 54161  53.2184   3.4643 0001679 104.2244 255.8935 15.08833502 65016,6917.9,95.438,540.927,538.604,0.0
54161.0,STARLINK-5269,PAYLOAD,2023-12-31 06:58:15,15.08833732,0.0001662,53.2184,2.8696,103.9848,256.1329,8.2716e-06,-1.56e-06,0.0,0 STARLINK-5269,1 54161U 22141E   23365.29045717 -.00000156  00000-0  82716-5 0  9993,2 54161  53.2184   2.8696 0001662 103.9848 256.1329 15.08833732 65033,6917.9,95.438,540.914,538.615,0.0
54161.0,STARLINK-5269,PAYLOAD,2024-01-01 05:13:39,15.08837429,0.0001706,53.2185,358.7069,103.6102,256.5081,7.4768e-06,-1.69e-06,0.0,0 STARLINK-5269,1 54161U 22141E   24001.21781760 -.00000169  00000-0  74768-5 0  9990,2 54161  53.2185 358.7069 0001706 103.6102 256.5081 15.08837429 65171,6917.888,95.438,540.933,538.573,0.0
54161.0,STARLINK-5269,PAYLOAD,2024-01-02 06:39:49,15.08838628,0.0001632,53.2185,353.9505,100.2486,259.869,0.0001051,1.385e-05,0.0,0 STARLINK-5269,1 54161U 22141E   24002.27765700  .00001385  00000-0  10510-3 0  9996,2 54161  53.2185 353.9505 0001632 100.2486 259.8690 15.08838628 65331,6917.885,95.438,540.879,538.621,0.0
54161.0,STARLINK-5269,PAYLOAD,2024-01-03 06:30:36,15.0884022,0.0001659,53.2185,349.4901,98.8053,261.3127,5.989e-05,6.65e-06,0.0,0 STARLINK-5269,1 54161U 22141E   24003.27125917  .00000665  00000-0  59890-4 0  9992,2 54161  53.2185 349.4901 0001659  98.8053 261.3127 15.08840220 65482,6917.88,95.438,540.892,538.597,0.0
54161.0,STARLINK-5269,PAYLOAD,2024-01-04 03:10:38,15.08837296,0.0001639,53.2192,345.6229,80.2327,279.885,-1.0599e-06,-3.05e-06,0.0,0 STARLINK-5269,1 54161U 22141E   24004.13238543 -.00000305  00000-0 -10599-5 0  9995,2 54161  53.2192 345.6229 0001639  80.2327 279.8850 15.08837296 65619,6917.889,95.438,540.887,538.62,0.0
54161.0,STARLINK-5269,PAYLOAD,2024-01-04 07:56:47,15.08842144,0.0001727,53.2194,344.7262,74.8804,285.2379,4.1877e-05,3.78e-06,0.0,0 STARLINK-5269,1 54161U 22141E   24004.33110100  .00000378  00000-0  41877-4 0  9995,2 54161  53.2194 344.7262 0001727  74.8804 285.2379 15.08842144 65643,6917.874,95.437,540.934,538.544,0.0
54161.0,STARLINK-5269,PAYLOAD,2024-01-05 04:36:47,15.08827026,0.0001872,53.2197,340.8608,67.9669,292.1522,0.00032667,4.913e-05,0.0,0 STARLINK-5269,1 54161U 22141E   24005.19221857  .00004913  00000-0  32667-3 0  9997,2 54161  53.2197 340.8608 0001872  67.9669 292.1522 15.08827026 65773,6917.92,95.438,541.08,538.49,0.0
54161.0,STARLINK-5269,PAYLOAD,2024-01-05 07:47:34,15.08785341,0.0002132,53.2198,340.2653,78.3445,281.7787,0.000926,0.00014458,0.0,0 STARLINK-5269,1 54161U 22141E   24005.32470640  .00014458  00000-0  92600-3 0  9996,2 54161  53.2198 340.2653 0002132  78.3445 281.7787 15.08785341 65798,6918.047,95.441,541.387,538.438,0.0
54161.0,STARLINK-5269,PAYLOAD,2024-01-05 22:06:02,15.08839383,0.0001127,53.2192,337.5935,104.1007,256.011,-3.4546e-05,-8.38e-06,0.0,0 STARLINK-5269,1 54161U 22141E   24005.92086104 -.00000838  00000-0 -34546-4 0  9995,2 54161  53.2192 337.5935 0001127 104.1007 256.0110 15.08839383 65880,6917.882,95.438,540.527,538.968,0.0
54161.0,STARLINK-5269,PAYLOAD,2024-01-06 04:27:34,15.08843559,0.0001655,53.2176,336.4057,88.5368,271.5814,1.1033e-05,-1.12e-06,0.0,0 STARLINK-5269,1 54161U 22141E   24006.18581770 -.00000112  00000-0  11033-4 0  9993,2 54161  53.2176 336.4057 0001655  88.5368 271.5814 15.08843559 65924,6917.87,95.437,540.879,538.59,0.0
54161.0,STARLINK-5269,PAYLOAD,2024-01-07 07:29:07,15.0884598,0.0001741,53.2175,331.35,113.9612,246.1562,-6.9409e-05,-1.393e-05,0.0,0 STARLINK-5269,1 54161U 22141E   24007.31189733 -.00001393  00000-0 -69409-4 0  9995,2 54161  53.2175 331.3500 0001741 113.9612 246.1562 15.08845980 66098,6917.862,95.437,540.932,538.523,0.0
54161.0,STARLINK-5269,PAYLOAD,2024-01-08 02:33:46,15.08777145,0.0001999,53.2174,327.7798,99.8942,260.2276,0.00088755,0.00013841,0.0,0 STARLINK-5269,1 54161U 22141E   24008.10679123  .00013841  00000-0  88755-3 0  9993,2 54161  53.2174 327.7798 0001999  99.8942 260.2276 15.08777145 66218,6918.073,95.442,541.32,538.555,0.0
54161.0,STARLINK-5269,PAYLOAD,2024-01-08 07:19:54,15.08839166,0.0001636,53.2176,326.8867,109.0875,251.0295,0.00011527,1.547e-05,0.0,0 STARLINK-5269,1 54161U 22141E   24008.30549699  .00001547  00000-0  11527-3 0  9992,2 54161  53.2176 326.8867 0001636 109.0875 251.0295 15.08839166 66248,6917.883,95.438,540.88,538.616,0.0
54161.0,STARLINK-5269,PAYLOAD,2024-01-09 03:59:56,15.08836046,0.0001649,53.2187,323.0195,98.8746,261.2433,5.5027e-05,5.88e-06,0.0,0 STARLINK-5269,1 54161U 22141E   24009.16662395  .00000588  00000-0  55027-4 0  9994,2 54161  53.2187 323.0195 0001649  98.8746 261.2433 15.08836046 66374,6917.892,95.438,540.898,538.617,0.0
54161.0,STARLINK-5269,PAYLOAD,2024-01-09 21:29:10,15.08838358,0.00015,53.2177,319.752,96.1495,263.9668,3.8353e-05,3.22e-06,0.0,0 STARLINK-5269,1 54161U 22141E   24009.89526510  .00000322  00000-0  38353-4 0  9991,2 54161  53.2177 319.7520 0001500  96.1495 263.9668 15.08838358 66484,6917.885,95.438,540.788,538.713,0.0
54161.0,STARLINK-5269,PAYLOAD,2024-01-10 03:50:42,15.08848316,0.0001515,53.2177,318.5629,94.0901,266.0264,9.0407e-05,1.151e-05,0.0,0 STARLINK-5269,1 54161U 22141E   24010.16021752  .00001151  00000-0  90407-4 0  9990,2 54161  53.2177 318.5629 0001515  94.0901 266.0264 15.08848316 66522,6917.855,95.437,540.768,538.672,0.0
54161.0,STARLINK-5269,PAYLOAD,2024-01-10 07:01:28,15.08850168,0.0001563,53.2175,317.9673,100.3773,259.7395,0.0001272,1.738e-05,0.0,0 STARLINK-5269,1 54161U 22141E   24010.29269462  .00001738  00000-0  12720-3 0  9998,2 54161  53.2175 317.9673 0001563 100.3773 259.7395 15.08850168 66547,6917.849,95.437,540.796,538.633,0.0
54161.0,STARLINK-5269,PAYLOAD,2024-01-11 03:41:30,15.08844099,0.0001697,53.2189,314.0942,85.0227,275.0959,1.5188e-05,-4.6e-07,0.0,0 STARLINK-5269,1 54161U 22141E   24011.15382390 -.00000046  00000-0  15188-4 0  9994,2 54161  53.2189 314.0942 0001697  85.0227 275.0959 15.08844099 66677,6917.868,95.437,540.907,538.559,0.0
54161.0,STARLINK-5269,PAYLOAD,2024-01-11 05:16:53,15.08844475,0.0001519,53.2175,313.8054,91.1993,268.9173,0.00010254,1.345e-05,0.0,0 STARLINK-5269,1 54161U 22141E   24011.22006115  .00001345  00000-0  10254-3 0  9990,2 54161  53.2175 313.8054 0001519  91.1993 268.9173 15.08844475 66682,6917.867,95.437,540.783,538.681,0.0
54161.0,STARLINK-5269,PAYLOAD,2024-01-12 05:07:40,15.08850558,0.000149,53.2175,309.3428,95.597,264.5192,5.0181e-05,5.11e-06,0.0,0 STARLINK-5269,1 54161U 22141E   24012.21365966  .00000511  00000-0  50181-4 0  9990,2 54161  53.2175 309.3428 0001490  95.5970 264.5192 15.08850558 66837,6917.848,95.437,540.744,538.682,0.0
54161.0,STARLINK-5269,PAYLOAD,2024-01-12 19:26:09,15.08832199,0.0001347,53.2195,306.6625,109.2776,250.8362,2.5969e-05,1.25e-06,0.0,0 STARLINK-5269,1 54161U 22141E   24012.80983273  .00000125  00000-0  25969-4 0  9999,2 54161  53.2195 306.6625 0001347 109.2776 250.8362 15.08832199 66924,6917.904,95.438,540.701,538.837,0.0
54161.0,STARLINK-5269,PAYLOAD,2024-01-13 01:47:41,15.08844645,0.0001385,53.2165,305.4809,91.2606,268.8545,2.0431e-05,3.7e-07,0.0,0 STARLINK-5269,1 54161U 22141E   24013.07478546  .00000037  00000-0  20431-4 0  9992,2 54161  53.2165 305.4809 0001385  91.2606 268.8545 15.08844645 66961,6917.866,95.437,540.689,538.773,0.0
54161.0,STARLINK-5269,PAYLOAD,2024-01-14 01:38:28,15.08844154,0.0001562,53.218,301.0219,83.2303,276.8867,-5.1111e-07,-2.96e-06,0.0,0 STARLINK-5269,1 54161U 22141E   24014.06839025 -.00000296  00000-0 -51111-6 0  9995,2 54161  53.2180 301.0219 0001562  83.2303 276.8867 15.08844154 67116,6917.868,95.437,540.813,538.652,0.0
54161.0,STARLINK-5269,PAYLOAD,2024-01-14 22:18:29,15.08846349,0.0001638,53.2179,297.1559,90.5199,269.5981,0.0001141,1.529e-05,0.0,0 STARLINK-5269,1 54161U 22141E   24014.92950507  .00001529  00000-0  11410-3 0  9992,2 54161  53.2179 297.1559 0001638  90.5199 269.5981 15.08846349 67242,6917.861,95.437,540.859,538.593,0.0
54161.0,STARLINK-5269,PAYLOAD,2024-01-15 01:29:15,15.08851069,0.0001565,53.2183,296.5603,93.3469,266.7702,0.00014214,1.976e-05,0.0,0 STARLINK-5269,1 54161U 22141E   24015.06198129  .00001976  00000-0  14214-3 0  9993,2 54161  53.2183 296.5603 0001565  93.3469 266.7702 15.08851069 67267,6917.847,95.437,540.794,538.629,0.0
